CZ-2C R/B               
1 54039U 22132E   26036.49923675  .00049540  00000+0  62926-3 0  9992
2 54039  97.2960  38.9135 0017756 202.0517 157.9978 15.59071942185359
GSLV R/B                
1 54149U 22138AN  26036.35992778  .00004765  00000+0  41549-3 0  9993
2 54149  87.3863 177.1808 0019318 268.9803  90.9215 14.96524545179097
XRISM                   
1 57800U 23137A   26036.34402464  .00009025  00000+0  51979-3 0  9999
2 57800  31.0019 132.8058 0007992  75.4775 284.6749 15.11090091132895
ACS3                    
1 59588U 24077B   26036.29559348  .00026707  00000+0  22092-1 0  9994
2 59588  97.2253 344.6895 0045594 179.9440 180.1736 13.88271969 89709
SZ-21 MODULE            
1 66515U 25246C   26036.38462473  .00044396  00000+0  42095-3 0  9994
2 66515  41.4761  41.8476 0003081 276.8900  83.1590 15.66107693 13006
