CCSDS_OMM_VERS = 2.0
CREATION_DATE  = 
ORIGINATOR     = 

OBJECT_NAME    = CZ-2C R/B
OBJECT_ID      = 2022-132E
CENTER_NAME    = EARTH
REF_FRAME      = TEME
TIME_SYSTEM    = UTC
MEAN_ELEMENT_THEORY = SGP/SGP4

EPOCH          = 2026-02-05T11:58:54.055200
MEAN_MOTION    = 15.59071942
ECCENTRICITY   = .0017756
INCLINATION    = 97.2960
RA_OF_ASC_NODE = 38.9135
ARG_OF_PERICENTER = 202.0517
MEAN_ANOMALY   = 157.9978

EPHEMERIS_TYPE = 0
CLASSIFICATION_TYPE = U
NORAD_CAT_ID   = 54039
ELEMENT_SET_NO = 999
REV_AT_EPOCH   = 18535
BSTAR          = .62926E-3
MEAN_MOTION_DOT = .4954E-3
MEAN_MOTION_DDOT = 0

CCSDS_OMM_VERS = 2.0
CREATION_DATE  = 
ORIGINATOR     = 

OBJECT_NAME    = GSLV R/B
OBJECT_ID      = 2022-138AN
CENTER_NAME    = EARTH
REF_FRAME      = TEME
TIME_SYSTEM    = UTC
MEAN_ELEMENT_THEORY = SGP/SGP4

EPOCH          = 2026-02-05T08:38:17.760192
MEAN_MOTION    = 14.96524545
ECCENTRICITY   = .0019318
INCLINATION    = 87.3863
RA_OF_ASC_NODE = 177.1808
ARG_OF_PERICENTER = 268.9803
MEAN_ANOMALY   = 90.9215

EPHEMERIS_TYPE = 0
CLASSIFICATION_TYPE = U
NORAD_CAT_ID   = 54149
ELEMENT_SET_NO = 999
REV_AT_EPOCH   = 17909
BSTAR          = .41549E-3
MEAN_MOTION_DOT = .4765E-4
MEAN_MOTION_DDOT = 0

CCSDS_OMM_VERS = 2.0
CREATION_DATE  = 
ORIGINATOR     = 

OBJECT_NAME    = XRISM
OBJECT_ID      = 2023-137A
CENTER_NAME    = EARTH
REF_FRAME      = TEME
TIME_SYSTEM    = UTC
MEAN_ELEMENT_THEORY = SGP/SGP4

EPOCH          = 2026-02-05T08:15:23.728896
MEAN_MOTION    = 15.11090091
ECCENTRICITY   = .0007992
INCLINATION    = 31.0019
RA_OF_ASC_NODE = 132.8058
ARG_OF_PERICENTER = 75.4775
MEAN_ANOMALY   = 284.6749

EPHEMERIS_TYPE = 0
CLASSIFICATION_TYPE = U
NORAD_CAT_ID   = 57800
ELEMENT_SET_NO = 999
REV_AT_EPOCH   = 13289
BSTAR          = .51979E-3
MEAN_MOTION_DOT = .9025E-4
MEAN_MOTION_DDOT = 0

CCSDS_OMM_VERS = 2.0
CREATION_DATE  = 
ORIGINATOR     = 

OBJECT_NAME    = ACS3
OBJECT_ID      = 2024-077B
CENTER_NAME    = EARTH
REF_FRAME      = TEME
TIME_SYSTEM    = UTC
MEAN_ELEMENT_THEORY = SGP/SGP4

EPOCH          = 2026-02-05T07:05:39.276672
MEAN_MOTION    = 13.88271969
ECCENTRICITY   = .0045594
INCLINATION    = 97.2253
RA_OF_ASC_NODE = 344.6895
ARG_OF_PERICENTER = 179.9440
MEAN_ANOMALY   = 180.1736

EPHEMERIS_TYPE = 0
CLASSIFICATION_TYPE = U
NORAD_CAT_ID   = 59588
ELEMENT_SET_NO = 999
REV_AT_EPOCH   = 8970
BSTAR          = .22092E-1
MEAN_MOTION_DOT = .26707E-3
MEAN_MOTION_DDOT = 0

CCSDS_OMM_VERS = 2.0
CREATION_DATE  = 
ORIGINATOR     = 

OBJECT_NAME    = SZ-21 MODULE
OBJECT_ID      = 2025-246C
CENTER_NAME    = EARTH
REF_FRAME      = TEME
TIME_SYSTEM    = UTC
MEAN_ELEMENT_THEORY = SGP/SGP4

EPOCH          = 2026-02-05T09:13:51.576672
MEAN_MOTION    = 15.66107693
ECCENTRICITY   = .0003081
INCLINATION    = 41.4761
RA_OF_ASC_NODE = 41.8476
ARG_OF_PERICENTER = 276.8900
MEAN_ANOMALY   = 83.1590

EPHEMERIS_TYPE = 0
CLASSIFICATION_TYPE = U
NORAD_CAT_ID   = 66515
ELEMENT_SET_NO = 999
REV_AT_EPOCH   = 1300
BSTAR          = .42095E-3
MEAN_MOTION_DOT = .44396E-3
MEAN_MOTION_DDOT = 0

